CCSDS_OMM_VERS = 2.0
CREATION_DATE  = 
ORIGINATOR     = 

OBJECT_NAME    = UNKNOWN
OBJECT_ID      = 
CENTER_NAME    = EARTH
REF_FRAME      = TEME
TIME_SYSTEM    = UTC
MEAN_ELEMENT_THEORY = SGP/SGP4

EPOCH          = 2025-11-23T06:57:54.073152
MEAN_MOTION    = 2.99910636
ECCENTRICITY   = .6573065
INCLINATION    = 2.1156
RA_OF_ASC_NODE = 256.9143
ARG_OF_PERICENTER = 32.0785
MEAN_ANOMALY   = 204.1094

EPHEMERIS_TYPE = 0
CLASSIFICATION_TYPE = U
NORAD_CAT_ID   = 84932
ELEMENT_SET_NO = 999
REV_AT_EPOCH   = 13119
BSTAR          = .63685E-2
MEAN_MOTION_DOT = .789E-5
MEAN_MOTION_DDOT = 0

CCSDS_OMM_VERS = 2.0
CREATION_DATE  = 
ORIGINATOR     = 

OBJECT_NAME    = UNKNOWN
OBJECT_ID      = 
CENTER_NAME    = EARTH
REF_FRAME      = TEME
TIME_SYSTEM    = UTC
MEAN_ELEMENT_THEORY = SGP/SGP4

EPOCH          = 2025-11-20T04:42:40.258656
MEAN_MOTION    = 14.41014621
ECCENTRICITY   = .0046057
INCLINATION    = 98.4182
RA_OF_ASC_NODE = 295.5765
ARG_OF_PERICENTER = 229.5039
MEAN_ANOMALY   = 145.5334

EPHEMERIS_TYPE = 0
CLASSIFICATION_TYPE = U
NORAD_CAT_ID   = 85004
ELEMENT_SET_NO = 999
REV_AT_EPOCH   = 62765
BSTAR          = .35268E-3
MEAN_MOTION_DOT = .1104E-4
MEAN_MOTION_DDOT = 0

CCSDS_OMM_VERS = 2.0
CREATION_DATE  = 
ORIGINATOR     = 

OBJECT_NAME    = UNKNOWN
OBJECT_ID      = 
CENTER_NAME    = EARTH
REF_FRAME      = TEME
TIME_SYSTEM    = UTC
MEAN_ELEMENT_THEORY = SGP/SGP4

EPOCH          = 2025-11-22T02:39:37.947168
MEAN_MOTION    = 13.74985401
ECCENTRICITY   = .0027171
INCLINATION    = 99.2502
RA_OF_ASC_NODE = 188.6558
ARG_OF_PERICENTER = 309.9551
MEAN_ANOMALY   = 201.8772

EPHEMERIS_TYPE = 0
CLASSIFICATION_TYPE = U
NORAD_CAT_ID   = 85010
ELEMENT_SET_NO = 999
REV_AT_EPOCH   = 60108
BSTAR          = .14181E-2
MEAN_MOTION_DOT = .1314E-4
MEAN_MOTION_DDOT = 0

CCSDS_OMM_VERS = 2.0
CREATION_DATE  = 
ORIGINATOR     = 

OBJECT_NAME    = UNKNOWN
OBJECT_ID      = 
CENTER_NAME    = EARTH
REF_FRAME      = TEME
TIME_SYSTEM    = UTC
MEAN_ELEMENT_THEORY = SGP/SGP4

EPOCH          = 2025-11-20T01:24:10.245888
MEAN_MOTION    = 14.62248783
ECCENTRICITY   = .0015709
INCLINATION    = 74.0490
RA_OF_ASC_NODE = 81.6072
ARG_OF_PERICENTER = 348.5530
MEAN_ANOMALY   = 11.5277

EPHEMERIS_TYPE = 0
CLASSIFICATION_TYPE = U
NORAD_CAT_ID   = 85015
ELEMENT_SET_NO = 999
REV_AT_EPOCH   = 63929
BSTAR          = .1361E-3
MEAN_MOTION_DOT = .657E-5
MEAN_MOTION_DDOT = 0

CCSDS_OMM_VERS = 2.0
CREATION_DATE  = 
ORIGINATOR     = 

OBJECT_NAME    = UNKNOWN
OBJECT_ID      = 
CENTER_NAME    = EARTH
REF_FRAME      = TEME
TIME_SYSTEM    = UTC
MEAN_ELEMENT_THEORY = SGP/SGP4

EPOCH          = 2025-11-21T12:13:08.233248
MEAN_MOTION    = 14.72732960
ECCENTRICITY   = .0003128
INCLINATION    = 99.8520
RA_OF_ASC_NODE = 336.5047
ARG_OF_PERICENTER = 39.2995
MEAN_ANOMALY   = 114.2233

EPHEMERIS_TYPE = 0
CLASSIFICATION_TYPE = U
NORAD_CAT_ID   = 85023
ELEMENT_SET_NO = 999
REV_AT_EPOCH   = 62570
BSTAR          = .47209E-2
MEAN_MOTION_DOT = .30206E-3
MEAN_MOTION_DDOT = 0

CCSDS_OMM_VERS = 2.0
CREATION_DATE  = 
ORIGINATOR     = 

OBJECT_NAME    = UNKNOWN
OBJECT_ID      = 
CENTER_NAME    = EARTH
REF_FRAME      = TEME
TIME_SYSTEM    = UTC
MEAN_ELEMENT_THEORY = SGP/SGP4

EPOCH          = 2025-11-19T19:13:24.559680
MEAN_MOTION    = 13.74227690
ECCENTRICITY   = .0179479
INCLINATION    = 66.0394
RA_OF_ASC_NODE = 157.6815
ARG_OF_PERICENTER = 202.6246
MEAN_ANOMALY   = 156.6836

EPHEMERIS_TYPE = 0
CLASSIFICATION_TYPE = U
NORAD_CAT_ID   = 85027
ELEMENT_SET_NO = 999
REV_AT_EPOCH   = 60146
BSTAR          = .24754E-3
MEAN_MOTION_DOT = .183E-5
MEAN_MOTION_DDOT = 0

CCSDS_OMM_VERS = 2.0
CREATION_DATE  = 
ORIGINATOR     = 

OBJECT_NAME    = UNKNOWN
OBJECT_ID      = 
CENTER_NAME    = EARTH
REF_FRAME      = TEME
TIME_SYSTEM    = UTC
MEAN_ELEMENT_THEORY = SGP/SGP4

EPOCH          = 2025-11-21T08:16:40.173024
MEAN_MOTION    = 13.43289040
ECCENTRICITY   = .0137881
INCLINATION    = 102.2232
RA_OF_ASC_NODE = 286.2917
ARG_OF_PERICENTER = 47.1957
MEAN_ANOMALY   = 314.0660

EPHEMERIS_TYPE = 0
CLASSIFICATION_TYPE = U
NORAD_CAT_ID   = 85047
ELEMENT_SET_NO = 999
REV_AT_EPOCH   = 57378
BSTAR          = .31525E-1
MEAN_MOTION_DOT = .19093E-3
MEAN_MOTION_DDOT = 0

CCSDS_OMM_VERS = 2.0
CREATION_DATE  = 
ORIGINATOR     = 

OBJECT_NAME    = UNKNOWN
OBJECT_ID      = 
CENTER_NAME    = EARTH
REF_FRAME      = TEME
TIME_SYSTEM    = UTC
MEAN_ELEMENT_THEORY = SGP/SGP4

EPOCH          = 2025-11-22T21:56:31.356384
MEAN_MOTION    = 12.76845075
ECCENTRICITY   = .0268289
INCLINATION    = 102.3986
RA_OF_ASC_NODE = 308.9193
ARG_OF_PERICENTER = 233.6595
MEAN_ANOMALY   = 187.6508

EPHEMERIS_TYPE = 0
CLASSIFICATION_TYPE = U
NORAD_CAT_ID   = 85061
ELEMENT_SET_NO = 999
REV_AT_EPOCH   = 55325
BSTAR          = .11742E-1
MEAN_MOTION_DOT = .2918E-4
MEAN_MOTION_DDOT = 0

CCSDS_OMM_VERS = 2.0
CREATION_DATE  = 
ORIGINATOR     = 

OBJECT_NAME    = UNKNOWN
OBJECT_ID      = 
CENTER_NAME    = EARTH
REF_FRAME      = TEME
TIME_SYSTEM    = UTC
MEAN_ELEMENT_THEORY = SGP/SGP4

EPOCH          = 2025-11-19T02:29:53.021760
MEAN_MOTION    = 14.40682500
ECCENTRICITY   = .0011726
INCLINATION    = 74.0454
RA_OF_ASC_NODE = 266.4783
ARG_OF_PERICENTER = 146.5372
MEAN_ANOMALY   = 228.9890

EPHEMERIS_TYPE = 0
CLASSIFICATION_TYPE = U
NORAD_CAT_ID   = 85100
ELEMENT_SET_NO = 999
REV_AT_EPOCH   = 62994
BSTAR          = .16311E-3
MEAN_MOTION_DOT = .495E-5
MEAN_MOTION_DDOT = 0

CCSDS_OMM_VERS = 2.0
CREATION_DATE  = 
ORIGINATOR     = 

OBJECT_NAME    = UNKNOWN
OBJECT_ID      = 
CENTER_NAME    = EARTH
REF_FRAME      = TEME
TIME_SYSTEM    = UTC
MEAN_ELEMENT_THEORY = SGP/SGP4

EPOCH          = 2025-11-23T05:42:20.321280
MEAN_MOTION    = 13.72862873
ECCENTRICITY   = .0010321
INCLINATION    = 100.0552
RA_OF_ASC_NODE = 67.1369
ARG_OF_PERICENTER = 68.6416
MEAN_ANOMALY   = 321.1928

EPHEMERIS_TYPE = 0
CLASSIFICATION_TYPE = U
NORAD_CAT_ID   = 85106
ELEMENT_SET_NO = 999
REV_AT_EPOCH   = 60039
BSTAR          = .83088E-3
MEAN_MOTION_DOT = .717E-5
MEAN_MOTION_DDOT = 0

CCSDS_OMM_VERS = 2.0
CREATION_DATE  = 
ORIGINATOR     = 

OBJECT_NAME    = UNKNOWN
OBJECT_ID      = 
CENTER_NAME    = EARTH
REF_FRAME      = TEME
TIME_SYSTEM    = UTC
MEAN_ELEMENT_THEORY = SGP/SGP4

EPOCH          = 2025-11-22T20:47:11.308704
MEAN_MOTION    = 14.77354656
ECCENTRICITY   = .0006645
INCLINATION    = 98.4031
RA_OF_ASC_NODE = 190.0535
ARG_OF_PERICENTER = 207.1070
MEAN_ANOMALY   = 152.9793

EPHEMERIS_TYPE = 0
CLASSIFICATION_TYPE = U
NORAD_CAT_ID   = 85151
ELEMENT_SET_NO = 999
REV_AT_EPOCH   = 47659
BSTAR          = .24777E-2
MEAN_MOTION_DOT = .176E-3
MEAN_MOTION_DDOT = 0

CCSDS_OMM_VERS = 2.0
CREATION_DATE  = 
ORIGINATOR     = 

OBJECT_NAME    = UNKNOWN
OBJECT_ID      = 
CENTER_NAME    = EARTH
REF_FRAME      = TEME
TIME_SYSTEM    = UTC
MEAN_ELEMENT_THEORY = SGP/SGP4

EPOCH          = 2025-11-19T15:45:32.468256
MEAN_MOTION    = 13.71483640
ECCENTRICITY   = .0216699
INCLINATION    = 99.8554
RA_OF_ASC_NODE = 104.0167
ARG_OF_PERICENTER = 13.5208
MEAN_ANOMALY   = 5.4998

EPHEMERIS_TYPE = 0
CLASSIFICATION_TYPE = U
NORAD_CAT_ID   = 85210
ELEMENT_SET_NO = 999
REV_AT_EPOCH   = 59899
BSTAR          = .87711E-3
MEAN_MOTION_DOT = .886E-5
MEAN_MOTION_DDOT = 0

