UNKNOWN                 
1 84932U          25327.29020918  .00000789  00000+0  63685-2 0  9999
2 84932   2.1156 256.9143 6573065  32.0785 204.1094  2.99910636131190
UNKNOWN                 
1 85004U          25324.19629929  .00001104  00000+0  35268-3 0  9992
2 85004  98.4182 295.5765 0046057 229.5039 145.5334 14.41014621627657
UNKNOWN                 
1 85010U          25326.11085587  .00001314  00000+0  14181-2 0  9992
2 85010  99.2502 188.6558 0027171 309.9551 201.8772 13.74985401601088
UNKNOWN                 
1 85015U          25324.05845192  .00000657  00000+0  13610-3 0  9990
2 85015  74.0490  81.6072 0015709 348.5530  11.5277 14.62248783639296
UNKNOWN                 
1 85023U          25325.50912307  .00030206  00000+0  47209-2 0  9996
2 85023  99.8520 336.5047 0003128  39.2995 114.2233 14.72732960625709
UNKNOWN                 
1 85027U          25323.80097870  .00000183  00000+0  24754-3 0  9992
2 85027  66.0394 157.6815 0179479 202.6246 156.6836 13.74227690601467
UNKNOWN                 
1 85047U          25325.34490941  .00019093  00000+0  31525-1 0  9993
2 85047 102.2232 286.2917 0137881  47.1957 314.0660 13.43289040573788
UNKNOWN                 
1 85061U          25326.91425181  .00002918  00000+0  11742-1 0  9994
2 85061 102.3986 308.9193 0268289 233.6595 187.6508 12.76845075553252
UNKNOWN                 
1 85100U          25323.10408590  .00000495  00000+0  16311-3 0  9998
2 85100  74.0454 266.4783 0011726 146.5372 228.9890 14.40682500629949
UNKNOWN                 
1 85106U          25327.23773520  .00000717  00000+0  83088-3 0  9992
2 85106 100.0552  67.1369 0010321  68.6416 321.1928 13.72862873600396
UNKNOWN                 
1 85151U          25326.86610311  .00017600  00000+0  24777-2 0  9996
2 85151  98.4031 190.0535 0006645 207.1070 152.9793 14.77354656476593
UNKNOWN                 
1 85210U          25323.65662579  .00000886  00000+0  87711-3 0  9995
2 85210  99.8554 104.0167 0216699  13.5208   5.4998 13.71483640598991
